{"type": "FeatureCollection", "features": [ {"type": "Feature", "properties": {"norad_id": 37834, "name": "INTELSAT 18 (IS-18)", "group": "intelsat", "lat": 0.021423051820949817, "lon": 86.50151955493756, "alt_km": 35793.135395163066, "timestamp": "2025-12-24T11:32:59.671823+00:00", "meta": {"OBJECT_NAME": "INTELSAT 18 (IS-18)", "OBJECT_ID": "2011-056A", "EPOCH": "2025-12-23T17:24:42.196032", "MEAN_MOTION": 1.00271479, "ECCENTRICITY": 0.00017794, "INCLINATION": 0.025, "RA_OF_ASC_NODE": 285.7731, "ARG_OF_PERICENTER": 1.9109, "MEAN_ANOMALY": 245.9993, "EPHEMERIS_TYPE": 0, "CLASSIFICATION_TYPE": "U", "NORAD_CAT_ID": 37834, "ELEMENT_SET_NO": 999, "REV_AT_EPOCH": 5205, "BSTAR": 0, "MEAN_MOTION_DOT": 7.4e-07, "MEAN_MOTION_DDOT": 0}, "tle": {"line1": "1 37834U 11056A   25357.72548838  .00000074  00000+0  00000+0 0  9994", "line2": "2 37834   0.0250 285.7731 0001779   1.9109 245.9993  1.00271479 52055"}}, "geometry": {"type": "Point", "coordinates": [86.50151955493756, 0.021423051820949817]}}, {"type": "Feature", "properties": {"norad_id": 38098, "name": "INTELSAT 22 (IS-22)", "group": "intelsat", "lat": -0.03860219438104494, "lon": -21.402845939418093, "alt_km": 35780.43590233783, "timestamp": "2025-12-24T11:32:59.671836+00:00", "meta": {"OBJECT_NAME": "INTELSAT 22 (IS-22)", "OBJECT_ID": "2012-011A", "EPOCH": "2025-12-24T01:56:51.561312", "MEAN_MOTION": 1.00270449, "ECCENTRICITY": 0.0001933, "INCLINATION": 0.0277, "RA_OF_ASC_NODE": 43.4014, "ARG_OF_PERICENTER": 252.7744, "MEAN_ANOMALY": 257.9865, "EPHEMERIS_TYPE": 0, "CLASSIFICATION_TYPE": "U", "NORAD_CAT_ID": 38098, "ELEMENT_SET_NO": 999, "REV_AT_EPOCH": 543, "BSTAR": 0, "MEAN_MOTION_DOT": 0, "MEAN_MOTION_DDOT": 0}, "tle": {"line1": "1 38098U 12011A   25358.08115233  .00000000  00000+0  00000+0 0  9997", "line2": "2 38098   0.0277  43.4014 0001933 252.7744 257.9865  1.00270449  5430"}}, "geometry": {"type": "Point", "coordinates": [-21.402845939418093, -0.03860219438104494]}}, {"type": "Feature", "properties": {"norad_id": 38356, "name": "INTELSAT 19 (IS-19)", "group": "intelsat", "lat": 0.028385233414737546, "lon": 72.51277876469497, "alt_km": 35797.687456321255, "timestamp": "2025-12-24T11:32:59.671848+00:00", "meta": {"OBJECT_NAME": "INTELSAT 19 (IS-19)", "OBJECT_ID": "2012-030A", "EPOCH": "2025-12-23T20:46:08.056128", "MEAN_MOTION": 1.00272107, "ECCENTRICITY": 0.0002888, "INCLINATION": 0.0148, "RA_OF_ASC_NODE": 321.6246, "ARG_OF_PERICENTER": 307.6478, "MEAN_ANOMALY": 300.9143, "EPHEMERIS_TYPE": 0, "CLASSIFICATION_TYPE": "U", "NORAD_CAT_ID": 38356, "ELEMENT_SET_NO": 999, "REV_AT_EPOCH": 4869, "BSTAR": 0, "MEAN_MOTION_DOT": -3.5e-07, "MEAN_MOTION_DDOT": 0}, "tle": {"line1": "1 38356U 12030A   25357.86537102 -.00000035  00000+0  00000+0 0  9992", "line2": "2 38356   0.0148 321.6246 0002888 307.6478 300.9143  1.00272107 48692"}}, "geometry": {"type": "Point", "coordinates": [72.51277876469497, 0.028385233414737546]}}, {"type": "Feature", "properties": {"norad_id": 38740, "name": "INTELSAT 20 (IS-20)", "group": "intelsat", "lat": -0.023988240611532888, "lon": -24.996853437791454, "alt_km": 35796.36030629066, "timestamp": "2025-12-24T11:32:59.671860+00:00", "meta": {"OBJECT_NAME": "INTELSAT 20 (IS-20)", "OBJECT_ID": "2012-043A", "EPOCH": "2025-12-24T02:10:38.805024", "MEAN_MOTION": 1.00271076, "ECCENTRICITY": 0.0002714, "INCLINATION": 0.0108, "RA_OF_ASC_NODE": 56.6343, "ARG_OF_PERICENTER": 126.0527, "MEAN_ANOMALY": 11.3373, "EPHEMERIS_TYPE": 0, "CLASSIFICATION_TYPE": "U", "NORAD_CAT_ID": 38740, "ELEMENT_SET_NO": 999, "REV_AT_EPOCH": 4899, "BSTAR": 0, "MEAN_MOTION_DOT": -3e-08, "MEAN_MOTION_DDOT": 0}, "tle": {"line1": "1 38740U 12043A   25358.09072691 -.00000003  00000+0  00000+0 0  9991", "line2": "2 38740   0.0108  56.6343 0002714 126.0527  11.3373  1.00271076 48999"}}, "geometry": {"type": "Point", "coordinates": [-24.996853437791454, -0.023988240611532888]}}, {"type": "Feature", "properties": {"norad_id": 38749, "name": "INTELSAT 21 (IS-21)", "group": "intelsat", "lat": -0.017497696087102114, "lon": -151.50684367297828, "alt_km": 35781.61452258859, "timestamp": "2025-12-24T11:32:59.671871+00:00", "meta": {"OBJECT_NAME": "INTELSAT 21 (IS-21)", "OBJECT_ID": "2012-045A", "EPOCH": "2025-12-24T00:19:38.628192", "MEAN_MOTION": 1.00273208, "ECCENTRICITY": 0.0001643, "INCLINATION": 0.0147, "RA_OF_ASC_NODE": 304.3329, "ARG_OF_PERICENTER": 317.6645, "MEAN_ANOMALY": 137.7166, "EPHEMERIS_TYPE": 0, "CLASSIFICATION_TYPE": "U", "NORAD_CAT_ID": 38749, "ELEMENT_SET_NO": 999, "REV_AT_EPOCH": 4876, "BSTAR": 0, "MEAN_MOTION_DOT": -2.64e-06, "MEAN_MOTION_DDOT": 0}, "tle": {"line1": "1 38749U 12045A   25358.01364153 -.00000264  00000+0  00000+0 0  9990", "line2": "2 38749   0.0147 304.3329 0001643 317.6645 137.7166  1.00273208 48764"}}, "geometry": {"type": "Point", "coordinates": [-151.50684367297828, -0.017497696087102114]}}, {"type": "Feature", "properties": {"norad_id": 38867, "name": "INTELSAT 23 (IS-23)", "group": "intelsat", "lat": -0.0021870716220869675, "lon": -146.5452998883132, "alt_km": 35788.44411127545, "timestamp": "2025-12-24T11:32:59.671883+00:00", "meta": {"OBJECT_NAME": "INTELSAT 23 (IS-23)", "OBJECT_ID": "2012-057A", "EPOCH": "2025-12-23T23:09:09.356832", "MEAN_MOTION": 1.00264699, "ECCENTRICITY": 0.0001104, "INCLINATION": 0.0163, "RA_OF_ASC_NODE": 41.4093, "ARG_OF_PERICENTER": 266.1535, "MEAN_ANOMALY": 79.4555, "EPHEMERIS_TYPE": 0, "CLASSIFICATION_TYPE": "U", "NORAD_CAT_ID": 38867, "ELEMENT_SET_NO": 999, "REV_AT_EPOCH": 4819, "BSTAR": 0, "MEAN_MOTION_DOT": -2.64e-06, "MEAN_MOTION_DDOT": 0}, "tle": {"line1": "1 38867U 12057A   25357.96469163 -.00000264  00000+0  00000+0 0  9994", "line2": "2 38867   0.0163  41.4093 0001104 266.1535  79.4555  1.00264699 48193"}}, "geometry": {"type": "Point", "coordinates": [-146.5452998883132, -0.0021870716220869675]}}, {"type": "Feature", "properties": {"norad_id": 39360, "name": "FM-6", "group": "intelsat", "lat": 0.02687603059819677, "lon": 150.30557472032902, "alt_km": 35775.607023733755, "timestamp": "2025-12-24T11:32:59.671895+00:00", "meta": {"OBJECT_NAME": "FM-6", "OBJECT_ID": "2013-058A", "EPOCH": "2025-12-23T11:38:38.460768", "MEAN_MOTION": 1.00269364, "ECCENTRICITY": 0.00029708, "INCLINATION": 0.0125, "RA_OF_ASC_NODE": 63.3346, "ARG_OF_PERICENTER": 113.984, "MEAN_ANOMALY": 333.4468, "EPHEMERIS_TYPE": 0, "CLASSIFICATION_TYPE": "U", "NORAD_CAT_ID": 39360, "ELEMENT_SET_NO": 999, "REV_AT_EPOCH": 4431, "BSTAR": 0, "MEAN_MOTION_DOT": 4e-08, "MEAN_MOTION_DDOT": 0}, "tle": {"line1": "1 39360U 13058A   25357.48516737  .00000004  00000+0  00000+0 0  9993", "line2": "2 39360   0.0125  63.3346 0002970 113.9840 333.4468  1.00269364 44314"}}, "geometry": {"type": "Point", "coordinates": [150.30557472032902, 0.02687603059819677]}}, {"type": "Feature", "properties": {"norad_id": 40271, "name": "INTELSAT 30 (IS-30)", "group": "intelsat", "lat": 0.015893451979750076, "lon": 171.45732718510803, "alt_km": 35785.609017964714, "timestamp": "2025-12-24T11:32:59.671908+00:00", "meta": {"OBJECT_NAME": "INTELSAT 30 (IS-30)", "OBJECT_ID": "2014-062A", "EPOCH": "2025-12-23T21:14:27.843072", "MEAN_MOTION": 1.0026976, "ECCENTRICITY": 0.0001578, "INCLINATION": 0.0125, "RA_OF_ASC_NODE": 23.0608, "ARG_OF_PERICENTER": 67.4771, "MEAN_ANOMALY": 225.692, "EPHEMERIS_TYPE": 0, "CLASSIFICATION_TYPE": "U", "NORAD_CAT_ID": 40271, "ELEMENT_SET_NO": 999, "REV_AT_EPOCH": 503, "BSTAR": 0, "MEAN_MOTION_DOT": -1.3e-06, "MEAN_MOTION_DDOT": 0}, "tle": {"line1": "1 40271U 14062A   25357.88504448 -.00000130  00000+0  00000+0 0  9993", "line2": "2 40271   0.0125  23.0608 0001578  67.4771 225.6920  1.00269760  5031"}}, "geometry": {"type": "Point", "coordinates": [171.45732718510803, 0.015893451979750076]}}, {"type": "Feature", "properties": {"norad_id": 40333, "name": "DIRECTV 14", "group": "intelsat", "lat": 0.015678579286754053, "lon": 167.27521047218323, "alt_km": 35784.68479140502, "timestamp": "2025-12-24T11:32:59.671920+00:00", "meta": {"OBJECT_NAME": "DIRECTV 14", "OBJECT_ID": "2014-078B", "EPOCH": "2025-12-23T11:18:37.238976", "MEAN_MOTION": 1.00271389, "ECCENTRICITY": 3.845e-05, "INCLINATION": 0.0218, "RA_OF_ASC_NODE": 6.297, "ARG_OF_PERICENTER": 179.2975, "MEAN_ANOMALY": 337.1009, "EPHEMERIS_TYPE": 0, "CLASSIFICATION_TYPE": "U", "NORAD_CAT_ID": 40333, "ELEMENT_SET_NO": 999, "REV_AT_EPOCH": 4028, "BSTAR": 0, "MEAN_MOTION_DOT": 0, "MEAN_MOTION_DDOT": 0}, "tle": {"line1": "1 40333U 14078B   25357.47126434  .00000000  00000+0  00000+0 0  9994", "line2": "2 40333   0.0218   6.2970 0000384 179.2975 337.1009  1.00271389 40283"}}, "geometry": {"type": "Point", "coordinates": [167.27521047218323, 0.015678579286754053]}}, {"type": "Feature", "properties": {"norad_id": 40663, "name": "DIRECTV 15", "group": "intelsat", "lat": 0.02380472004206624, "lon": 163.6056671327174, "alt_km": 35784.837602695654, "timestamp": "2025-12-24T11:32:59.671932+00:00", "meta": {"OBJECT_NAME": "DIRECTV 15", "OBJECT_ID": "2015-026A", "EPOCH": "2025-12-23T16:04:04.915776", "MEAN_MOTION": 1.00267894, "ECCENTRICITY": 5.609e-05, "INCLINATION": 0.0212, "RA_OF_ASC_NODE": 18.8544, "ARG_OF_PERICENTER": 150.3599, "MEAN_ANOMALY": 61.3814, "EPHEMERIS_TYPE": 0, "CLASSIFICATION_TYPE": "U", "NORAD_CAT_ID": 40663, "ELEMENT_SET_NO": 999, "REV_AT_EPOCH": 3870, "BSTAR": 0, "MEAN_MOTION_DOT": 0, "MEAN_MOTION_DDOT": 0}, "tle": {"line1": "1 40663U 15026A   25357.66950134  .00000000  00000+0  00000+0 0  9997", "line2": "2 40663   0.0212  18.8544 0000560 150.3599  61.3814  1.00267894 38707"}}, "geometry": {"type": "Point", "coordinates": [163.6056671327174, 0.02380472004206624]}}]}